[{"OBJECT_NAME":"STARLINK-2531","OBJECT_ID":"2021-040BH","EPOCH":"2026-03-09T15:39:07.895808","MEAN_MOTION":15.30179272,"ECCENTRICITY":0.00011615,"INCLINATION":53.1602,"RA_OF_ASC_NODE":194.2459,"ARG_OF_PERICENTER":115.6639,"MEAN_ANOMALY":244.4482,"EPHEMERIS_TYPE":0,"CLASSIFICATION_TYPE":"U","NORAD_CAT_ID":48483,"ELEMENT_SET_NO":999,"REV_AT_EPOCH":26645,"BSTAR":-9.0250944e-5,"MEAN_MOTION_DOT":-3.029e-5,"MEAN_MOTION_DDOT":0},{"OBJECT_NAME":"OBJECT A","OBJECT_ID":"2025-013A","EPOCH":"2026-03-09T23:29:31.895232","MEAN_MOTION":15.29260221,"ECCENTRICITY":0.0010321,"INCLINATION":97.6364,"RA_OF_ASC_NODE":244.5149,"ARG_OF_PERICENTER":282.3775,"MEAN_ANOMALY":77.6309,"EPHEMERIS_TYPE":0,"CLASSIFICATION_TYPE":"U","NORAD_CAT_ID":62729,"ELEMENT_SET_NO":999,"REV_AT_EPOCH":6276,"BSTAR":0.0013206527,"MEAN_MOTION_DOT":0.00037616,"MEAN_MOTION_DDOT":0}]
